NORAD_CAT_ID,OBJECT_NAME,OBJECT_TYPE,EPOCH,MEAN_MOTION,ECCENTRICITY,INCLINATION,RA_OF_ASC_NODE,ARG_OF_PERICENTER,MEAN_ANOMALY,BSTAR,MEAN_MOTION_DOT,MEAN_MOTION_DDOT,TLE_LINE0,TLE_LINE1,TLE_LINE2,SEMIMAJOR_AXIS,PERIOD,APOGEE,PERIGEE,DECAYED
52502.0,STARLINK-3912,PAYLOAD,2022-07-23 14:00:01,15.73180377,0.0004011999999999,53.2129,239.3823,8.9272,255.93400000000003,-6.263e-05,-9.401e-05,0.0,0 STARLINK-3912,1 52502U 22049BD  22204.58335648 -.00009401  00000-0 -62630-4 0  9990,2 52502  53.2129 239.3823 0004012   8.9272 255.9340 15.73180377  1307,6727.951,91.534,352.515,347.117,0.0
52502.0,STARLINK-3912,PAYLOAD,2022-07-23 22:00:00,15.73125106,0.0003746,53.2129,237.7308,8.7628,344.9504,0.00061449,0.00086255,0.0,0 STARLINK-3912,1 52502U 22049BD  22204.91667824  .00086255  00000-0  61449-3 0  9997,2 52502  53.2129 237.7308 0003746   8.7628 344.9504 15.73125106  1303,6728.109,91.538,352.494,347.45300000000015,0.0
52502.0,STARLINK-3912,PAYLOAD,2022-07-24 14:00:01,15.73189612,0.0004065,53.2129,234.43400000000003,9.3063,162.174,0.00035508,0.00049501,0.0,0 STARLINK-3912,1 52502U 22049BD  22205.58334491  .00049501  00000-0  35508-3 0  9992,2 52502  53.2129 234.4340 0004065   9.3063 162.1740 15.73189612  1302,6727.925,91.534,352.525,347.055,0.0
52502.0,STARLINK-3912,PAYLOAD,2022-07-24 22:00:00,15.731809900000002,0.0003856,53.213,232.7824,8.7691,251.6597,9.4539e-05,0.00012658,0.0,0 STARLINK-3912,1 52502U 22049BD  22205.91667824  .00012658  00000-0  94539-4 0  9991,2 52502  53.2130 232.7824 0003856   8.7691 251.6597 15.73180990  1303,6727.949000000001,91.534,352.409,347.22,0.0
52502.0,STARLINK-3912,PAYLOAD,2022-07-25 14:00:01,15.73195683,0.0004153,53.2119,229.4852,9.6204,68.6301,0.00036329,0.00050682,0.0,0 STARLINK-3912,1 52502U 22049BD  22206.58334491  .00050682  00000-0  36329-3 0  9997,2 52502  53.2119 229.4852 0004153   9.6204  68.6301 15.73195683  1309,6727.906999999997,91.533,352.56699999999995,346.978,0.0
52502.0,STARLINK-3912,PAYLOAD,2022-07-25 22:00:00,15.73218641,0.0003819999999999,53.2119,227.8337,9.7239,157.4752,0.00020193,0.00027842,0.0,0 STARLINK-3912,1 52502U 22049BD  22206.91667824  .00027842  00000-0  20193-3 0  9997,2 52502  53.2119 227.8337 0003820   9.7239 157.4752 15.73218641  1305,6727.842,91.532,352.277,347.13699999999994,0.0
52502.0,STARLINK-3912,PAYLOAD,2022-07-26 06:00:00,15.73222681,0.0003971,53.2122,226.1853,9.4728,246.6959,-0.00019931,-0.00028542,0.0,0 STARLINK-3912,1 52502U 22049BD  22207.25001157 -.00028542  00000-0 -19931-3 0  9994,2 52502  53.2122 226.1853 0003971   9.4728 246.6959 15.73222681 12896,6727.831,91.532,352.367,347.024,0.0
52502.0,STARLINK-3912,PAYLOAD,2022-07-26 14:00:01,15.73204516,0.0004162,53.212,224.5364,8.1057,336.987,0.00030487,0.00042405,0.0,0 STARLINK-3912,1 52502U 22049BD  22207.58334491  .00042405  00000-0  30487-3 0  9991,2 52502  53.2120 224.5364 0004162   8.1057 336.9870 15.73204516  1303,6727.882,91.533,352.547,346.94699999999995,0.0
52502.0,STARLINK-3912,PAYLOAD,2022-07-26 22:00:00,15.73225533,0.0003922,53.2141,222.8817,10.3045,63.7511,0.00021391,0.00029547,0.0,0 STARLINK-3912,1 52502U 22049BD  22207.91667824  .00029547  00000-0  21391-3 0  9993,2 52502  53.2141 222.8817 0003922  10.3045  63.7511 15.73225533  1304,6727.821999999999,91.532,352.326,347.0490000000001,0.0
52502.0,STARLINK-3912,PAYLOAD,2022-07-27 06:00:02,15.73113304,0.0004065999999999,53.216,221.2307,9.6791,153.4501,0.0005411,0.0007575,0.0,0 STARLINK-3912,1 52502U 22049BD  22208.25002315  .00075750  00000-0  54110-3 0  9991,2 52502  53.2160 221.2307 0004066   9.6791 153.4501 15.73113304 13054,6728.142,91.538,352.74300000000005,347.272,0.0
52502.0,STARLINK-3912,PAYLOAD,2022-07-27 14:00:01,15.73249511,0.0004096999999999,53.2117,219.587,6.7353,245.2669,-0.00049379,-0.00069539,0.0,0 STARLINK-3912,1 52502U 22049BD  22208.58334491 -.00069539  00000-0 -49379-3 0  9991,2 52502  53.2117 219.5870 0004097   6.7353 245.2669 15.73249511  1307,6727.754,91.53,352.375,346.86300000000006,0.0
52502.0,STARLINK-3912,PAYLOAD,2022-07-27 16:00:00,15.73259997,0.0004038999999999,53.212,219.1741,6.5934,357.6467,-0.00080582,-0.00112568,0.0,0 STARLINK-3912,1 52502U 22049BD  22208.66667824 -.00112568  00000-0 -80582-3 0  9991,2 52502  53.2120 219.1741 0004039   6.5934 357.6467 15.73259997 13129,6727.724,91.53,352.306,346.872,0.0
52502.0,STARLINK-3912,PAYLOAD,2022-07-27 22:00:00,15.73152404,0.0003833999999999,53.2126,217.9354,6.7134,334.2624,0.00057427,0.0008061,0.0,0 STARLINK-3912,1 52502U 22049BD  22208.91667824  .00080610  00000-0  57427-3 0  9991,2 52502  53.2126 217.9354 0003834   6.7134 334.2624 15.73152404  1305,6728.031,91.536,352.475,347.316,0.0
52502.0,STARLINK-3912,PAYLOAD,2022-07-28 08:00:01,15.73225264,0.0004064,53.2135,215.8755,6.9257,175.1868,-7.384899999999999e-05,-0.00010992,0.0,0 STARLINK-3912,1 52502U 22049BD  22209.33334491 -.00010992  00000-0 -73849-4 0  9994,2 52502  53.2135 215.8755 0004064   6.9257 175.1868 15.73225264 13222,6727.823,91.532,352.422,346.954,0.0
52502.0,STARLINK-3912,PAYLOAD,2022-07-28 14:00:01,15.7323189,0.0004105,53.2134,214.6381,5.0755,153.7521,-0.0003337,-0.00047283,0.0,0 STARLINK-3912,1 52502U 22049BD  22209.58334491 -.00047283  00000-0 -33370-3 0  9998,2 52502  53.2134 214.6381 0004105   5.0755 153.7521 15.73231890  1308,6727.804,91.531,352.431,346.907,0.0
52502.0,STARLINK-3912,PAYLOAD,2022-07-28 22:00:00,15.73160395,0.0003898999999999,53.2135,212.9866,5.4932,242.2606,0.00052111,0.0007304999999999,0.0,0 STARLINK-3912,1 52502U 22049BD  22209.91667824  .00073050  00000-0  52111-3 0  9997,2 52502  53.2135 212.9866 0003899   5.4932 242.2606 15.73160395  1307,6728.0080000000025,91.535,352.496,347.25,0.0
52502.0,STARLINK-3912,PAYLOAD,2022-07-29 00:00:00,15.73182611,0.0003896,53.2137,212.5744,6.519,353.454,0.00035174,0.0004900999999999,0.0,0 STARLINK-3912,1 52502U 22049BD  22210.00001157  .00049010  00000-0  35174-3 0  9999,2 52502  53.2137 212.5744 0003896   6.5190 353.4540 15.73182611 13338,6727.945,91.534,352.431,347.189,0.0
52502.0,STARLINK-3912,PAYLOAD,2022-07-29 14:00:01,15.73186721,0.0004131,53.2128,209.6892,4.4964,61.1179,-9.5203e-05,-0.00013963,0.0,0 STARLINK-3912,1 52502U 22049BD  22210.58334491 -.00013963  00000-0 -95203-4 0  9992,2 52502  53.2128 209.6892 0004131   4.4964  61.1179 15.73186721  1309,6727.933000000001,91.534,352.577,347.019,0.0
52502.0,STARLINK-3912,PAYLOAD,2022-07-29 22:00:00,15.73161615,0.0003842,53.2131,208.0379,5.5789,148.9435,0.0004581,0.00064076,0.0,0 STARLINK-3912,1 52502U 22049BD  22210.91667824  .00064076  00000-0  45810-3 0  9995,2 52502  53.2131 208.0379 0003842   5.5789 148.9435 15.73161615  1305,6728.005,91.535,352.455,347.285,0.0
52502.0,STARLINK-3912,PAYLOAD,2022-07-30 06:00:00,15.73216891,0.0004059,53.2135,206.3903,5.9220000000000015,237.512,-0.00010127,-0.0001483,0.0,0 STARLINK-3912,1 52502U 22049BD  22211.25001157 -.00014830  00000-0 -10127-3 0  9992,2 52502  53.2135 206.3903 0004059   5.9220 237.5120 15.73216891 13528,6727.847,91.532,352.4430000000001,346.981,0.0
52502.0,STARLINK-3912,PAYLOAD,2022-07-30 14:00:01,15.73210963,0.0004115,53.2137,204.7404,4.0875,328.2812,-0.00042713,-0.00060203,0.0,0 STARLINK-3912,1 52502U 22049BD  22211.58334491 -.00060203  00000-0 -42713-3 0  9999,2 52502  53.2137 204.7404 0004115   4.0875 328.2812 15.73210963  1300,6727.864000000001,91.533,352.497,346.96,0.0
52502.0,STARLINK-3912,PAYLOAD,2022-07-30 22:00:00,15.73161254,0.0003926,53.2139,203.0892,5.464,55.8232,0.00043559,0.00060873,0.0,0 STARLINK-3912,1 52502U 22049BD  22211.91667824  .00060873  00000-0  43559-3 0  9995,2 52502  53.2139 203.0892 0003926   5.4640  55.8232 15.73161254  1306,6728.005999999999,91.535,352.51199999999994,347.22900000000016,0.0
52502.0,STARLINK-3912,PAYLOAD,2022-07-31 06:00:02,15.73198294,0.0004183,53.2137,201.4416,6.7071,143.5527,4.4167e-05,5.58e-05,0.0,0 STARLINK-3912,1 52502U 22049BD  22212.25002315  .00005580  00000-0  44167-4 0  9992,2 52502  53.2137 201.4416 0004183   6.7071 143.5527 15.73198294 13686,6727.9,91.533,352.579,346.951,0.0
52502.0,STARLINK-3912,PAYLOAD,2022-07-31 14:00:01,15.73227159,0.0004149,53.2133,199.7916,6.988,232.1267,-0.00011606,-0.00016908,0.0,0 STARLINK-3912,1 52502U 22049BD  22212.58334491 -.00016908  00000-0 -11606-3 0  9990,2 52502  53.2133 199.7916 0004149   6.9880 232.1267 15.73227159  1303,6727.818,91.532,352.474,346.891,0.0
52502.0,STARLINK-3912,PAYLOAD,2022-07-31 22:00:00,15.73236516,0.0003887,53.2137,198.1405,7.4538,320.6197,-2.2912e-05,-3.845e-05,0.0,0 STARLINK-3912,1 52502U 22049BD  22212.91667824 -.00003845  00000-0 -22912-4 0  9995,2 52502  53.2137 198.1405 0003887   7.4538 320.6197 15.73236516 13784,6727.791,91.531,352.271,347.041,0.0
52502.0,STARLINK-3912,PAYLOAD,2022-08-01 14:00:01,15.7339689,0.0004051,53.2152,194.8395,7.2395,138.7106,-0.0035066,-0.00470589,0.0,0 STARLINK-3912,1 52502U 22049BD  22213.58334491 -.00470589  00000-0 -35066-2 0  9995,2 52502  53.2152 194.8395 0004051   7.2395 138.7106 15.73396890 13897,6727.334,91.522,351.9240000000001,346.474,0.0
52502.0,STARLINK-3912,PAYLOAD,2022-08-01 22:00:00,15.73087485,0.0003597,53.2166,193.1846,2.8326,232.0909,-0.0048315,-0.00627832,0.0,0 STARLINK-3912,1 52502U 22049BD  22213.91667824 -.00627832  00000-0 -48315-2 0  9997,2 52502  53.2166 193.1846 0003597   2.8326 232.0909 15.73087485 13946,6728.215999999999,91.54,352.501,347.661,0.0
52502.0,STARLINK-3912,PAYLOAD,2022-08-02 06:00:02,15.726487900000002,0.000399,53.2175,191.5353,0.5419,322.9882,-0.0085669,-0.01057598,0.0,0 STARLINK-3912,1 52502U 22049BD  22214.25002315 -.01057598  00000-0 -85669-2 0  9993,2 52502  53.2175 191.5353 0003990   0.5419 322.9882 15.72648790 13991,6729.467,91.565,354.017,348.647,0.0
52502.0,STARLINK-3912,PAYLOAD,2022-08-02 14:00:01,15.718868900000002,0.0004093,53.2172,189.8861,359.7954,51.4701,-0.0088087999999999,-0.0105307,0.0,0 STARLINK-3912,1 52502U 22049BD  22214.58334491 -.01053070  00000-0 -88088-2 0  9991,2 52502  53.2172 189.8861 0004093 359.7954  51.4701 15.71886890  1300,6731.642,91.61,356.26199999999994,350.751,0.0
